27P/Crommelin,e,29.4446,250.7106,195.8365,9.179026,0.0354413,0.91964312,174.3280,01/18.0/2025,2000,g 12.0,8.0
# From MPEC 2025-A40
28P/Neujmin,e,14.2963,346.4007,347.4654,6.982215,0.0534213,0.77283391,75.2873,01/18.0/2025,2000,g  8.5,6.0
# From MPEC 2025-AH4
29P/Schwassmann-Wachmann,e,9.3564,312.4047,52.1826,6.055872,0.0661362,0.04353705,137.9454,01/18.0/2025,2000,g  4.0,4.0
# From MPEC 2025-AH4
30P/Reinmuth,e,8.0533,117.2351,9.4957,3.734511,0.1365694,0.51434234,21.0044,01/18.0/2025,2000,g  9.5,6.0
# From MPEC 2025-A40
31P/Schwassmann-Wachmann,e,4.5498,114.1138,17.8612,4.231832,0.1132170,0.19326935,229.1528,01/18.0/2025,2000,g  5.0,8.0
# From MPEC 2025-AH4
32P/ComasSola,e,9.9206,54.5305,54.6880,4.552950,0.1014530,0.55527953,27.6307,01/18.0/2025,2000,g  6.5,8.0
# From MPEC 2025-AH4
33P/Daniel,e,22.2944,66.2823,20.2736,4.094042,0.1189805,0.45223539,8.0962,01/18.0/2025,2000,g 10.0,12.0
# From  9, 314
34D/Gale,e,10.5826,57.8663,218.0289,5.016333,0.0877252,0.75793747,308.7398,01/18.0/2025,2000,g  9.0,4.0
# From  15, 452
35P/Herschel-Rigollet,e,64.718,356.305,29.166,28.5376,0.006465,0.9743754,0.000,04/05.4118/2092,2000,g  9.0,4.0
# From MPEC 2023-RF3
36P/Whipple,e,9.9474,181.8334,201.2009,4.140536,0.1169821,0.26836428,197.7930,01/18.0/2025,2000,g  8.5,6.0
# From MPEC 2025-AE4
37P/Forbes,e,8.9479,314.5495,330.0627,3.462132,0.1529990,0.53271186,15.1093,01/18.0/2025,2000,g 10.5,4.8
# From MPEC 2024-YC7
38P/Stephan-Oterma,e,18.4166,77.8580,359.5753,11.25983,0.0260859,0.85982840,58.8839,01/18.0/2025,2000,g  3.5,12.0
# From MPEC 2024-AF0
39P/Oterma,e,1.6872,289.7050,113.1262,6.991737,0.0533122,0.17912561,27.3479,01/18.0/2025,2000,g  7.0,6.0
# From MPEC 2025-A40
40P/Vaisala,e,11.6313,128.9309,51.9785,4.955310,0.0893507,0.63192641,333.3851,01/18.0/2025,2000,g  5.5,12.0
# From MPEC 2023-SQ0
41P/Tuttle-Giacobini-Kresak,e,9.2162,140.9720,62.2246,3.087983,0.1816317,0.65955572,155.7751,01/18.0/2025,2000,g 10.0,16.0
# From MPC 94283
42P/Neujmin,e,3.9883,150.1537,147.1561,4.878091,0.0914807,0.58402034,326.8842,01/18.0/2025,2000,g 13.0,6.0
# From MPEC 2025-AH4
43P/Wolf-Harrington,e,9.3340,243.9957,223.8785,4.330365,0.1093748,0.43598376,338.2402,01/18.0/2025,2000,g  8.0,6.0
# From MPEC 2024-F34
44P/Reinmuth,e,5.8959,286.4221,58.0111,3.687818,0.1391714,0.42681450,139.3994,01/18.0/2025,2000,g  8.3,6.0
# From MPEC 2022-O01
45P/Honda-Mrkos-Pajdusakova,e,4.3242,87.6850,327.9485,3.056713,0.1844260,0.81769815,183.8113,01/18.0/2025,2000,g 13.5,8.0
# From MPEC 2024-F91
46P/Wirtanen,e,11.7499,82.1607,356.3302,3.091553,0.1813173,0.65876230,44.2229,01/18.0/2025,2000,g 14.0,6.0
# From MPEC 2024-PC5
47P/Ashbrook-Jackson,e,13.0377,356.8869,357.9013,4.118394,0.1179267,0.31831575,326.6334,01/18.0/2025,2000,g  1.0,11.2
# From MPEC 2024-UA9
48P/Johnson,e,12.2017,110.0641,216.7774,3.499596,0.1505488,0.42662838,353.4287,01/18.0/2025,2000,g 10.0,6.0
# From MPEC 2025-AH4
49P/Arend-Rigaux,e,19.0587,118.7933,332.9364,3.569849,0.1461266,0.59904962,347.9265,01/18.0/2025,2000,g 11.3,4.4
# From MPEC 2025-AE4
50P/Arend,e,19.0991,355.1476,49.3279,4.088069,0.1192413,0.52983721,29.8471,01/18.0/2025,2000,g  9.5,6.0
# From MPEC 2023-J29
51P/Harrington,e,5.4263,83.6576,269.2438,3.705458,0.1381787,0.54288450,116.0863,01/18.0/2025,2000,g 10.0,8.0
# From NK 3014
51P-A/Harrington,e,5.4262,269.2292,83.6524,3.706709,0.1381088,0.54307640,115.6713,01/18.0/2025,2000,g 10.0,8.0
# From MPEC 2023-J29
51P-D/Harrington,e,5.4268,83.6459,269.2619,3.705811,0.1381590,0.54301448,116.0112,01/18.0/2025,2000,g 16.0,8.0
# From MPEC 2023-XP6
52P/Harrington-Abell,e,10.2361,336.7647,139.5962,3.862200,0.1298530,0.54102179,155.8251,01/18.0/2025,2000,g 13.5,6.0
# From MPEC 2023-TM6
53P/VanBiesbroeck,e,6.6025,148.8518,134.3624,5.438373,0.0777142,0.54953140,248.1962,01/18.0/2025,2000,g  7.7,4.8
# From MPEC 2024-YC7
54P/deVico-Swift-NEAT,e,6.0635,358.7935,2.0045,3.787296,0.1337243,0.42651922,18.1879,01/18.0/2025,2000,g 10.0,6.0
# From MPC 31070
55P/Tempel-Tuttle,e,162.4925,235.4160,172.4812,10.34085,0.0296394,0.90565222,291.3705,01/18.0/2025,2000,g  9.0,4.0
# From MPEC 2023-TM6
56P/Slaughter-Burnham,e,8.1550,345.9032,44.2045,5.063356,0.0865060,0.50848564,267.8476,01/18.0/2025,2000,g  8.5,6.0
# From MPEC 2024-DC6
57P/duToit-Neujmin-Delporte,e,2.8527,188.7586,115.0600,3.441507,0.1543764,0.50097876,183.6378,01/18.0/2025,2000,g 12.5,6.0
# From MPEC 2024-A43
58P/Jackson-Neujmin,e,13.0910,159.0483,200.5814,4.090627,0.1191295,0.66186657,202.1385,01/18.0/2025,2000,g 15.5,6.0
# From MPEC 2023-A50
59P/Kearns-Kwee,e,9.3545,312.7323,127.6478,4.479678,0.1039522,0.47702742,240.2133,01/18.0/2025,2000,g  7.0,6.0
# From MPEC 2025-A40
60P/Tsuchinshan,e,3.5797,267.3979,216.9389,3.529881,0.1486154,0.53384856,332.7069,01/18.0/2025,2000,g 11.5,6.0
# From MPEC 2024-JU4
61P/Shajn-Schaldach,e,5.9977,162.9634,221.6986,3.690121,0.1390411,0.42325803,113.6535,01/18.0/2025,2000,g  6.0,10.0
# From MPEC 2025-AH4
62P/Tsuchinshan,e,4.7374,68.6663,47.3194,3.370531,0.1592783,0.62468941,62.0923,01/18.0/2025,2000,g  8.0,10.0
# From MPC 84320
63P/Wild,e,19.6285,357.8081,168.8157,5.645093,0.0734848,0.65064784,320.7305,01/18.0/2025,2000,g 10.5,6.0
# From MPEC 2024-A43
64P/Swift-Gehrels,e,8.9531,299.7829,97.3252,4.452104,0.1049195,0.68858076,237.4762,01/18.0/2025,2000,g  9.5,12.0
# From MPEC 2024-R10
65P/Gunn,e,9.1758,61.9767,213.6969,3.891740,0.1283773,0.24810561,340.7973,01/18.0/2025,2000,g  5.0,6.0
# From MPEC 2021-F20
66P/duToit,e,18.6438,21.8230,257.4145,6.070667,0.0658946,0.78498791,160.8607,01/18.0/2025,2000,g 15.0,4.0
# From MPEC 2024-C04
67P/Churyumov-Gerasimenko,e,3.8694,36.3213,22.1984,3.458418,0.1532455,0.64994715,179.6544,01/18.0/2025,2000,g 11.0,4.0
# From MPEC 2023-HD1
68P/Klemola,e,11.1019,175.0844,153.2414,4.963112,0.0891401,0.63593847,169.2852,01/18.0/2025,2000,g 12.6,4.0
# From MPEC 2024-C04
69P/Taylor,e,22.0614,104.8084,343.4727,3.881118,0.1289047,0.41467550,274.4988,01/18.0/2025,2000,g  9.5,12.0
# From MPEC 2023-VM5
70P/Kojima,e,6.6024,119.2354,1.7822,3.675637,0.1398637,0.45469973,163.8019,01/18.0/2025,2000,g 11.0,6.0
# From MPEC 2024-YC7
71P/Clark,e,9.3819,59.3702,209.9871,3.164307,0.1751000,0.49085786,127.0799,01/18.0/2025,2000,g  9.8,6.0
# From MPEC 2023-VM5
72P/Denning-Fujikawa,e,10.9461,26.7119,346.7450,4.307621,0.1102422,0.81844928,64.1968,01/18.0/2025,2000,g 17.5,10.0
# From MPEC 2023-RF3
73P/Schwassmann-Wachmann,e,10.9181,69.0561,199.1128,3.047222,0.1852883,0.70870262,160.0096,01/18.0/2025,2000,g 11.5,6.0
# From NK 1613
73P-B/Schwassmann-Wachmann B,e,10.8873,196.4387,72.0473,3.074544,0.1828239,0.69555086,158.5995,01/18.0/2025,2000,g  9.0,4.0
# From NK 2710
73P-C/Schwassmann-Wachmann,e,10.8969,196.5901,71.9316,3.073379,0.1829279,0.69520496,159.4445,01/18.0/2025,2000,g  9.0,4.0
# From NK 934
73P-E/Schwassmann-Wachmann,e,10.8610,196.1621,72.2914,3.078021,0.1825142,0.69621950,156.7043,01/18.0/2025,2000,g  9.0,4.0
# From MPC 56796
73P-G/Schwassmann-Wachmann,e,11.388,69.909,198.772,3.06230,0.183922,0.6933024,359.982,06/08.0/2006,2000,g  9.0,4.0
# From MPC 56796
73P-H/Schwassmann-Wachmann,e,11.389,69.903,198.778,3.06223,0.183927,0.6933024,359.948,06/08.0/2006,2000,g  9.0,4.0
# From MPC 56796
73P-J/Schwassmann-Wachmann,e,11.386,69.983,198.673,3.06380,0.183786,0.6933024,359.974,06/08.0/2006,2000,g  9.0,4.0
# From MPC 56797
73P-K/Schwassmann-Wachmann,e,11.390,69.881,198.809,3.06176,0.183970,0.6933024,359.959,06/08.0/2006,2000,g  9.0,4.0
# From MPC 56797
73P-L/Schwassmann-Wachmann,e,11.388,69.911,198.772,3.06211,0.183938,0.6933024,359.937,06/08.0/2006,2000,g  9.0,4.0
# From MPC 56797
73P-M/Schwassmann-Wachmann,e,11.389,69.895,198.787,3.06205,0.183944,0.6933024,359.952,06/08.0/2006,2000,g  9.0,4.0
# From MPC 56797
73P-N/Schwassmann-Wachmann,e,11.389,69.909,198.754,3.06231,0.183921,0.6933024,359.952,06/08.0/2006,2000,g  9.0,4.0
# From MPC 56797
73P-P/Schwassmann-Wachmann,e,11.390,69.900,198.783,3.06222,0.183929,0.6933024,359.839,06/07.0/2006,2000,g  9.0,4.0
# From MPC 56797
73P-Q/Schwassmann-Wachmann,e,11.387,69.944,198.717,3.06298,0.183860,0.6933024,359.867,06/07.0/2006,2000,g  9.0,4.0
# From MPC 56797
73P-R/Schwassmann-Wachmann,e,11.388,69.904,198.776,3.06224,0.183927,0.6933024,359.966,06/08.0/2006,2000,g  9.0,4.0
# From MPC 56797
73P-S/Schwassmann-Wachmann,e,11.127,77.364,188.229,3.22719,0.170007,0.6933024,359.883,06/08.0/2006,2000,g  9.0,4.0
# From MPEC 2023-J29
73P-T/Schwassmann-Wachmann,e,10.9344,69.0756,199.0935,3.046593,0.1853457,0.70829797,160.3099,01/18.0/2025,2000,g  9.0,4.0
# From MPC 56797
73P-U/Schwassmann-Wachmann,e,11.384,69.994,198.659,3.06366,0.183799,0.6933024,359.997,06/09.0/2006,2000,g  9.0,4.0
# From MPC 56797
73P-V/Schwassmann-Wachmann,e,11.651,65.236,204.943,2.97417,0.192156,0.6933024,359.908,06/08.0/2006,2000,g  9.0,4.0
# From MPC 56797
73P-W/Schwassmann-Wachmann,e,11.390,69.884,198.803,3.06185,0.183962,0.6933024,359.908,06/08.0/2006,2000,g  9.0,4.0
# From MPC 56798
73P-X/Schwassmann-Wachmann,e,11.388,69.900,198.778,3.06207,0.183942,0.6933024,359.896,06/08.0/2006,2000,g  9.0,4.0
# From MPC 56798
73P-Y/Schwassmann-Wachmann,e,11.391,69.879,198.785,3.06200,0.183948,0.6933024,359.858,06/08.0/2006,2000,g  9.0,4.0
# From MPC 56798
73P-Z/Schwassmann-Wachmann,e,11.349,70.493,198.017,3.07155,0.183091,0.6933024,359.943,06/08.0/2006,2000,g  9.0,4.0
# From MPC 56798
73P-AA/Schwassmann-Wachmann,e,11.390,69.883,198.804,3.06182,0.183965,0.6933024,359.984,06/09.0/2006,2000,g  9.0,4.0
# From MPC 56798
73P-AB/Schwassmann-Wachmann,e,11.390,69.888,198.792,3.06183,0.183964,0.6933024,359.872,06/08.0/2006,2000,g  9.0,4.0
# From MPC 56798
73P-AC/Schwassmann-Wachmann,e,11.387,69.914,198.766,3.06223,0.183927,0.6933024,359.872,06/08.0/2006,2000,g  9.0,4.0
# From MPC 56798
73P-AD/Schwassmann-Wachmann,e,11.355,70.416,198.119,3.07035,0.183198,0.6933024,359.873,06/08.0/2006,2000,g  9.0,4.0
# From MPC 56798
73P-AE/Schwassmann-Wachmann,e,11.390,69.891,198.790,3.06196,0.183952,0.6933024,359.935,06/08.0/2006,2000,g  9.0,4.0
# From MPC 56798
